[{"OBJECT_NAME":"STARLINK-3540","OBJECT_ID":"2022-016F","EPOCH":"2026-03-09T22:31:05.700288","MEAN_MOTION":15.08830295,"ECCENTRICITY":0.00016137,"INCLINATION":53.2182,"RA_OF_ASC_NODE":328.082,"ARG_OF_PERICENTER":89.8823,"MEAN_ANOMALY":270.2354,"EPHEMERIS_TYPE":0,"CLASSIFICATION_TYPE":"U","NORAD_CAT_ID":51719,"ELEMENT_SET_NO":999,"REV_AT_EPOCH":22346,"BSTAR":6.0846431e-5,"MEAN_MOTION_DOT":6.8e-6,"MEAN_MOTION_DDOT":0},{"OBJECT_NAME":"OBJECT E","OBJECT_ID":"2025-013E","EPOCH":"2026-03-09T23:59:52.369152","MEAN_MOTION":15.10347623,"ECCENTRICITY":0.00085591,"INCLINATION":97.6477,"RA_OF_ASC_NODE":238.3736,"ARG_OF_PERICENTER":6.9171,"MEAN_ANOMALY":353.2174,"EPHEMERIS_TYPE":0,"CLASSIFICATION_TYPE":"U","NORAD_CAT_ID":62733,"ELEMENT_SET_NO":999,"REV_AT_EPOCH":6224,"BSTAR":0.00032920786,"MEAN_MOTION_DOT":5.34e-5,"MEAN_MOTION_DDOT":0}]
